{"type": "FeatureCollection", "features": [{"type": "Feature", "properties": {"norad_id": 26766, "name": "INTELSAT 10 (IS-10)", "group": "intelsat", "lat": 6.115303951956314, "lon": -163.81515682449253, "alt_km": 36121.32433677338, "timestamp": "2025-12-08T21:31:04.342559+00:00", "meta": {"OBJECT_NAME": "INTELSAT 10 (IS-10)", "OBJECT_ID": "2001-019A", "EPOCH": "2025-12-08T12:50:38.848704", "MEAN_MOTION": 0.99078973, "ECCENTRICITY": 0.00078528, "INCLINATION": 8.6199, "RA_OF_ASC_NODE": 61.1985, "ARG_OF_PERICENTER": 221.9209, "MEAN_ANOMALY": 143.9126, "EPHEMERIS_TYPE": 0, "CLASSIFICATION_TYPE": "U", "NORAD_CAT_ID": 26766, "ELEMENT_SET_NO": 999, "REV_AT_EPOCH": 4369, "BSTAR": 0, "MEAN_MOTION_DOT": -2.74e-06, "MEAN_MOTION_DDOT": 0}, "tle": {"line1": "1 26766U 01019A   25342.53517186 -.00000274  00000+0  00000+0 0  9992", "line2": "2 26766   8.6199  61.1985 0007852 221.9209 143.9126  0.99078973 43699"}}, "geometry": {"type": "Point", "coordinates": [-163.81515682449253, 6.115303951956314]}}, {"type": "Feature", "properties": {"norad_id": 26900, "name": "INTELSAT 902 (IS-902)", "group": "intelsat", "lat": -5.602613018336239, "lon": -9.433624876068011, "alt_km": 35791.48053832736, "timestamp": "2025-12-08T21:31:04.342584+00:00", "meta": {"OBJECT_NAME": "INTELSAT 902 (IS-902)", "OBJECT_ID": "2001-039A", "EPOCH": "2025-12-01T16:59:59.311968", "MEAN_MOTION": 1.00270327, "ECCENTRICITY": 0.00043097, "INCLINATION": 5.6187, "RA_OF_ASC_NODE": 74.2002, "ARG_OF_PERICENTER": 175.119, "MEAN_ANOMALY": 26.3816, "EPHEMERIS_TYPE": 0, "CLASSIFICATION_TYPE": "U", "NORAD_CAT_ID": 26900, "ELEMENT_SET_NO": 999, "REV_AT_EPOCH": 8871, "BSTAR": 0, "MEAN_MOTION_DOT": -2.63e-06, "MEAN_MOTION_DDOT": 0}, "tle": {"line1": "1 26900U 01039A   25335.70832537 -.00000263  00000+0  00000+0 0  9993", "line2": "2 26900   5.6187  74.2002 0004309 175.1190  26.3816  1.00270327 88713"}}, "geometry": {"type": "Point", "coordinates": [-9.433624876068011, -5.602613018336239]}}, {"type": "Feature", "properties": {"norad_id": 27380, "name": "INTELSAT 904 (IS-904)", "group": "intelsat", "lat": -5.699917786102454, "lon": 9.292910746554861, "alt_km": 35787.37350523485, "timestamp": "2025-12-08T21:31:04.342601+00:00", "meta": {"OBJECT_NAME": "INTELSAT 904 (IS-904)", "OBJECT_ID": "2002-007A", "EPOCH": "2025-12-08T15:09:58.269024", "MEAN_MOTION": 1.00268358, "ECCENTRICITY": 0.0001612, "INCLINATION": 6.4433, "RA_OF_ASC_NODE": 71.4765, "ARG_OF_PERICENTER": 211.5706, "MEAN_ANOMALY": 350.5417, "EPHEMERIS_TYPE": 0, "CLASSIFICATION_TYPE": "U", "NORAD_CAT_ID": 27380, "ELEMENT_SET_NO": 999, "REV_AT_EPOCH": 8717, "BSTAR": 0, "MEAN_MOTION_DOT": -2.26e-06, "MEAN_MOTION_DDOT": 0}, "tle": {"line1": "1 27380U 02007A   25342.63192441 -.00000226  00000+0  00000+0 0  9994", "line2": "2 27380   6.4433  71.4765 0001612 211.5706 350.5417  1.00268358 87175"}}, "geometry": {"type": "Point", "coordinates": [9.292910746554861, -5.699917786102454]}}, {"type": "Feature", "properties": {"norad_id": 27426, "name": "DIRECTV 5 (TEMPO 1)", "group": "intelsat", "lat": -2.400947479938005, "lon": -69.51636506013936, "alt_km": 35770.29190173541, "timestamp": "2025-12-08T21:31:04.342614+00:00", "meta": {"OBJECT_NAME": "DIRECTV 5 (TEMPO 1)", "OBJECT_ID": "2002-023A", "EPOCH": "2025-12-08T12:16:36.573024", "MEAN_MOTION": 1.0027186, "ECCENTRICITY": 0.00039183, "INCLINATION": 4.3913, "RA_OF_ASC_NODE": 77.7003, "ARG_OF_PERICENTER": 198.8983, "MEAN_ANOMALY": 234.9531, "EPHEMERIS_TYPE": 0, "CLASSIFICATION_TYPE": "U", "NORAD_CAT_ID": 27426, "ELEMENT_SET_NO": 999, "REV_AT_EPOCH": 8621, "BSTAR": 0, "MEAN_MOTION_DOT": -5.6e-07, "MEAN_MOTION_DDOT": 0}, "tle": {"line1": "1 27426U 02023A   25342.51153441 -.00000056  00000+0  00000+0 0  9998", "line2": "2 27426   4.3913  77.7003 0003918 198.8983 234.9531  1.00271860 86213"}}, "geometry": {"type": "Point", "coordinates": [-69.51636506013936, -2.400947479938005]}}, {"type": "Feature", "properties": {"norad_id": 27438, "name": "INTELSAT 905 (IS-905)", "group": "intelsat", "lat": -1.255347521162324, "lon": -96.60482026735961, "alt_km": 35774.10584038007, "timestamp": "2025-12-08T21:31:04.342628+00:00", "meta": {"OBJECT_NAME": "INTELSAT 905 (IS-905)", "OBJECT_ID": "2002-027A", "EPOCH": "2025-12-08T12:00:17.267040", "MEAN_MOTION": 1.00271271, "ECCENTRICITY": 0.00028954, "INCLINATION": 6.2751, "RA_OF_ASC_NODE": 72.1034, "ARG_OF_PERICENTER": 189.9537, "MEAN_ANOMALY": 218.3132, "EPHEMERIS_TYPE": 0, "CLASSIFICATION_TYPE": "U", "NORAD_CAT_ID": 27438, "ELEMENT_SET_NO": 999, "REV_AT_EPOCH": 4945, "BSTAR": 0, "MEAN_MOTION_DOT": 9.4e-07, "MEAN_MOTION_DDOT": 0}, "tle": {"line1": "1 27438U 02027A   25342.50019985  .00000094  00000+0  00000+0 0  9999", "line2": "2 27438   6.2751  72.1034 0002895 189.9537 218.3132  1.00271271 49453"}}, "geometry": {"type": "Point", "coordinates": [-96.60482026735961, -1.255347521162324]}}, {"type": "Feature", "properties": {"norad_id": 27445, "name": "GALAXY 3C (G-3C)", "group": "intelsat", "lat": -2.3265904635794676, "lon": -54.23349337562283, "alt_km": 35789.45281526769, "timestamp": "2025-12-08T21:31:04.342640+00:00", "meta": {"OBJECT_NAME": "GALAXY 3C (G-3C)", "OBJECT_ID": "2002-030A", "EPOCH": "2025-12-08T12:25:42.773952", "MEAN_MOTION": 1.00270867, "ECCENTRICITY": 0.00011389, "INCLINATION": 3.2536, "RA_OF_ASC_NODE": 80.5473, "ARG_OF_PERICENTER": 99.4242, "MEAN_ANOMALY": 349.1178, "EPHEMERIS_TYPE": 0, "CLASSIFICATION_TYPE": "U", "NORAD_CAT_ID": 27445, "ELEMENT_SET_NO": 999, "REV_AT_EPOCH": 4458, "BSTAR": 0, "MEAN_MOTION_DOT": -1.51e-06, "MEAN_MOTION_DDOT": 0}, "tle": {"line1": "1 27445U 02030A   25342.51785618 -.00000151  00000+0  00000+0 0  9990", "line2": "2 27445   3.2536  80.5473 0001138  99.4242 349.1178  1.00270867 44588"}}, "geometry": {"type": "Point", "coordinates": [-54.23349337562283, -2.3265904635794676]}}, {"type": "Feature", "properties": {"norad_id": 27513, "name": "INTELSAT 906 (IS-906)", "group": "intelsat", "lat": 2.6363420711906644, "lon": 104.66956840078045, "alt_km": 35810.15885134485, "timestamp": "2025-12-08T21:31:04.342652+00:00", "meta": {"OBJECT_NAME": "INTELSAT 906 (IS-906)", "OBJECT_ID": "2002-041A", "EPOCH": "2025-12-08T08:46:20.009568", "MEAN_MOTION": 1.00270756, "ECCENTRICITY": 0.00060753, "INCLINATION": 5.3176, "RA_OF_ASC_NODE": 75.2836, "ARG_OF_PERICENTER": 189.3726, "MEAN_ANOMALY": 8.4369, "EPHEMERIS_TYPE": 0, "CLASSIFICATION_TYPE": "U", "NORAD_CAT_ID": 27513, "ELEMENT_SET_NO": 999, "REV_AT_EPOCH": 8511, "BSTAR": 0, "MEAN_MOTION_DOT": 1.4e-07, "MEAN_MOTION_DDOT": 0}, "tle": {"line1": "1 27513U 02041A   25342.36550937  .00000014  00000+0  00000+0 0  9992", "line2": "2 27513   5.3176  75.2836 0006075 189.3726   8.4369  1.00270756 85110"}}, "geometry": {"type": "Point", "coordinates": [104.66956840078045, 2.6363420711906644]}}, {"type": "Feature", "properties": {"norad_id": 27954, "name": "GALAXY 13 (HORIZONS-1)", "group": "intelsat", "lat": 0.23061485137385454, "lon": -109.32824748207557, "alt_km": 35778.03232896955, "timestamp": "2025-12-08T21:31:04.342664+00:00", "meta": {"OBJECT_NAME": "GALAXY 13 (HORIZONS-1)", "OBJECT_ID": "2003-044A", "EPOCH": "2025-12-08T14:36:09.006912", "MEAN_MOTION": 1.00269697, "ECCENTRICITY": 0.00020295, "INCLINATION": 0.9248, "RA_OF_ASC_NODE": 86.5245, "ARG_OF_PERICENTER": 160.3438, "MEAN_ANOMALY": 259.7902, "EPHEMERIS_TYPE": 0, "CLASSIFICATION_TYPE": "U", "NORAD_CAT_ID": 27954, "ELEMENT_SET_NO": 999, "REV_AT_EPOCH": 4466, "BSTAR": 0, "MEAN_MOTION_DOT": 1.35e-06, "MEAN_MOTION_DDOT": 0}, "tle": {"line1": "1 27954U 03044A   25342.60843758  .00000135  00000+0  00000+0 0  9992", "line2": "2 27954   0.9248  86.5245 0002029 160.3438 259.7902  1.00269697 44664"}}, "geometry": {"type": "Point", "coordinates": [-109.32824748207557, 0.23061485137385454]}}, {"type": "Feature", "properties": {"norad_id": 28358, "name": "INTELSAT 10-02", "group": "intelsat", "lat": 0.00031538261632592775, "lon": 39.69779102095435, "alt_km": 35787.54359330627, "timestamp": "2025-12-08T21:31:04.342676+00:00", "meta": {"OBJECT_NAME": "INTELSAT 10-02", "OBJECT_ID": "2004-022A", "EPOCH": "2025-12-08T13:35:59.768736", "MEAN_MOTION": 1.0027242, "ECCENTRICITY": 0.00012205, "INCLINATION": 0.0328, "RA_OF_ASC_NODE": 73.0267, "ARG_OF_PERICENTER": 218.2082, "MEAN_ANOMALY": 349.3587, "EPHEMERIS_TYPE": 0, "CLASSIFICATION_TYPE": "U", "NORAD_CAT_ID": 28358, "ELEMENT_SET_NO": 999, "REV_AT_EPOCH": 7864, "BSTAR": 0, "MEAN_MOTION_DOT": -8e-08, "MEAN_MOTION_DDOT": 0}, "tle": {"line1": "1 28358U 04022A   25342.56666399 -.00000008  00000+0  00000+0 0  9997", "line2": "2 28358   0.0328  73.0267 0001220 218.2082 349.3587  1.00272420 78646"}}, "geometry": {"type": "Point", "coordinates": [39.69779102095435, 0.00031538261632592775]}}, {"type": "Feature", "properties": {"norad_id": 28626, "name": "XM-3 (RHYTHM)", "group": "intelsat", "lat": 0.1588310278328351, "lon": 173.2230932952219, "alt_km": 36165.11811217421, "timestamp": "2025-12-08T21:31:04.342688+00:00", "meta": {"OBJECT_NAME": "XM-3 (RHYTHM)", "OBJECT_ID": "2005-008A", "EPOCH": "2025-12-08T14:21:38.470752", "MEAN_MOTION": 0.98953996, "ECCENTRICITY": 0.00013156, "INCLINATION": 0.164, "RA_OF_ASC_NODE": 81.1442, "ARG_OF_PERICENTER": 262.6864, "MEAN_ANOMALY": 83.1621, "EPHEMERIS_TYPE": 0, "CLASSIFICATION_TYPE": "U", "NORAD_CAT_ID": 28626, "ELEMENT_SET_NO": 999, "REV_AT_EPOCH": 4070, "BSTAR": 0, "MEAN_MOTION_DOT": -2.54e-06, "MEAN_MOTION_DDOT": 0}, "tle": {"line1": "1 28626U 05008A   25342.59836193 -.00000254  00000+0  00000+0 0  9997", "line2": "2 28626   0.1640  81.1442 0001315 262.6864  83.1621  0.98953996 40701"}}, "geometry": {"type": "Point", "coordinates": [173.2230932952219, 0.1588310278328351]}}]}